NORAD_CAT_ID,OBJECT_NAME,OBJECT_TYPE,EPOCH,MEAN_MOTION,ECCENTRICITY,INCLINATION,RA_OF_ASC_NODE,ARG_OF_PERICENTER,MEAN_ANOMALY,BSTAR,MEAN_MOTION_DOT,MEAN_MOTION_DDOT,TLE_LINE0,TLE_LINE1,TLE_LINE2,SEMIMAJOR_AXIS,PERIOD,APOGEE,PERIGEE,DECAYED
52674.0,STARLINK-3936,PAYLOAD,2023-06-04 19:32:49,15.08838709,0.0001009,53.2179,3.1367,101.9707,258.1398,0.00012131,1.643e-05,0.0,0 STARLINK-3936,1 52674U 22053U   23155.81445852  .00001643  00000-0  12131-3 0  9994,2 52674  53.2179   3.1367 0001009 101.9707 258.1398 15.08838709 58309,6917.884,95.438,540.447,539.051,0.0
52674.0,STARLINK-3936,PAYLOAD,2023-06-04 21:08:12,15.08841649,9.32e-05,53.2177,2.8409,97.2971,262.8127,0.00014791,2.067e-05,0.0,0 STARLINK-3936,1 52674U 22053U   23155.88069682  .00002067  00000-0  14791-3 0  9999,2 52674  53.2177   2.8409 0000932  97.2971 262.8127 15.08841649 58752,6917.875,95.437,540.385,539.096,0.0
52674.0,STARLINK-3936,PAYLOAD,2023-06-05 08:15:54,15.08841675,9.69e-05,53.2168,0.7593,92.0598,268.0505,0.00010712,1.418e-05,0.0,0 STARLINK-3936,1 52674U 22053U   23156.34437660  .00001418  00000-0  10712-3 0  9994,2 52674  53.2168   0.7593 0000969  92.0598 268.0505 15.08841675 58826,6917.875,95.437,540.411,539.07,0.0
52674.0,STARLINK-3936,PAYLOAD,2023-06-05 19:23:36,15.08842889,9.88e-05,53.2166,358.677,104.829,255.2812,5.6146e-05,6.06e-06,0.0,0 STARLINK-3936,1 52674U 22053U   23156.80805613  .00000606  00000-0  56146-4 0  9992,2 52674  53.2166 358.6770 0000988 104.8290 255.2812 15.08842889 58892,6917.872,95.437,540.42,539.053,0.0
52674.0,STARLINK-3936,PAYLOAD,2023-06-06 00:09:45,15.08849749,9.4e-05,53.2168,357.7855,93.7301,266.3799,0.00016525,2.344e-05,0.0,0 STARLINK-3936,1 52674U 22053U   23157.00677300  .00002344  00000-0  16525-3 0  9992,2 52674  53.2168 357.7855 0000940  93.7301 266.3799 15.08849749 58489,6917.851,95.437,540.366,539.065,0.0
52674.0,STARLINK-3936,PAYLOAD,2023-06-06 12:52:50,15.08837407,0.0001008,53.2163,355.4069,94.8553,265.2554,5.8029e-05,6.36e-06,0.0,0 STARLINK-3936,1 52674U 22053U   23157.53669958  .00000636  00000-0  58029-4 0  9998,2 52674  53.2163 355.4069 0001008  94.8553 265.2554 15.08837407 59007,6917.888,95.438,540.451,539.056,0.0
52674.0,STARLINK-3936,PAYLOAD,2023-06-06 16:03:37,15.08838625,9.12e-05,53.2167,354.8122,82.4943,277.6153,5.8108e-05,6.37e-06,0.0,0 STARLINK-3936,1 52674U 22053U   23157.66917976  .00000637  00000-0  58108-4 0  9997,2 52674  53.2167 354.8122 0000912  82.4943 277.6153 15.08838625 58580,6917.885,95.438,540.381,539.119,0.0
52674.0,STARLINK-3936,PAYLOAD,2023-06-06 19:14:23,15.08841511,0.0001054,53.2166,354.2181,73.7989,286.3119,0.00010395,1.367e-05,0.0,0 STARLINK-3936,1 52674U 22053U   23157.80165904  .00001367  00000-0  10395-3 0  9995,2 52674  53.2166 354.2181 0001054  73.7989 286.3119 15.08841511 59048,6917.876,95.437,540.47,539.012,0.0
52674.0,STARLINK-3936,PAYLOAD,2023-06-06 22:25:09,15.08849625,9.32e-05,53.2168,353.6224,88.9228,271.1871,0.00016666,2.366e-05,0.0,0 STARLINK-3936,1 52674U 22053U   23157.93413394  .00002366  00000-0  16666-3 0  9995,2 52674  53.2168 353.6224 0000932  88.9228 271.1871 15.08849625 58623,6917.851,95.437,540.361,539.071,0.0
52674.0,STARLINK-3936,PAYLOAD,2023-06-07 12:43:38,15.08837451,0.0001097,53.2168,350.9458,93.4324,266.6793,7.2841e-05,8.72e-06,0.0,0 STARLINK-3936,1 52674U 22053U   23158.53030131  .00000872  00000-0  72841-4 0  9994,2 52674  53.2168 350.9458 0001097  93.4324 266.6793 15.08837451 59158,6917.888,95.438,540.512,538.994,0.0
52674.0,STARLINK-3936,PAYLOAD,2023-06-07 19:05:10,15.08841874,0.0001195,53.2167,349.7566,99.2695,260.8432,0.00012652,1.726e-05,0.0,0 STARLINK-3936,1 52674U 22053U   23158.79525879  .00001726  00000-0  12652-3 0  9992,2 52674  53.2167 349.7566 0001195  99.2695 260.8432 15.08841874 58752,6917.875,95.437,540.566,538.913,0.0
52674.0,STARLINK-3936,PAYLOAD,2023-06-08 12:34:25,15.08839303,9.69e-05,53.2162,346.4859,90.1669,269.9435,0.00012774,1.746e-05,0.0,0 STARLINK-3936,1 52674U 22053U   23159.52390196  .00001746  00000-0  12774-3 0  9993,2 52674  53.2162 346.4859 0000969  90.1669 269.9435 15.08839303 59304,6917.883,95.438,540.418,539.077,0.0
52674.0,STARLINK-3936,PAYLOAD,2023-06-09 12:25:12,15.0884058,9.84e-05,53.2165,342.0254,82.4371,277.6733,7.3224e-05,8.78e-06,0.0,0 STARLINK-3936,1 52674U 22053U   23160.51750299  .00000878  00000-0  73224-4 0  9991,2 52674  53.2165 342.0254 0000984  82.4371 277.6733 15.08840580 59451,6917.879,95.438,540.424,539.063,0.0
52674.0,STARLINK-3936,PAYLOAD,2023-06-09 18:46:44,15.08841939,0.0001105,53.2165,340.8359,90.9901,269.1218,0.00012881,1.763e-05,0.0,0 STARLINK-3936,1 52674U 22053U   23160.78246227  .00001763  00000-0  12881-3 0  9996,2 52674  53.2165 340.8359 0001105  90.9901 269.1218 15.08841939 59051,6917.874,95.437,540.504,538.975,0.0
52674.0,STARLINK-3936,PAYLOAD,2023-06-10 12:15:59,15.08839604,0.0001009,53.2165,337.565,81.394,278.7167,9.7967e-05,1.272e-05,0.0,0 STARLINK-3936,1 52674U 22053U   23161.51110385  .00001272  00000-0  97967-4 0  9997,2 52674  53.2165 337.5650 0001009  81.3940 278.7167 15.08839604 59604,6917.882,95.438,540.445,539.049,0.0
52674.0,STARLINK-3936,PAYLOAD,2023-06-10 18:37:31,15.08842394,0.0001004,53.2167,336.3754,81.7304,278.3802,0.00012107,1.64e-05,0.0,0 STARLINK-3936,1 52674U 22053U   23161.77606214  .00001640  00000-0  12107-3 0  9997,2 52674  53.2167 336.3754 0001004  81.7304 278.3802 15.08842394 59647,6917.873,95.437,540.433,539.044,0.0
52674.0,STARLINK-3936,PAYLOAD,2023-06-11 04:09:50,15.08842653,9.42e-05,53.2168,334.5915,76.8116,283.2981,6.486e-05,7.45e-06,0.0,0 STARLINK-3936,1 52674U 22053U   23162.17350174  .00000745  00000-0  64860-4 0  9992,2 52674  53.2168 334.5915 0000942  76.8116 283.2981 15.08842653 59262,6917.872,95.437,540.389,539.086,0.0
52674.0,STARLINK-3936,PAYLOAD,2023-06-11 13:42:09,15.08838275,9.76e-05,53.2173,332.8073,82.9648,277.1455,6.9887e-05,8.25e-06,0.0,0 STARLINK-3936,1 52674U 22053U   23162.57094622  .00000825  00000-0  69887-4 0  9992,2 52674  53.2173 332.8073 0000976  82.9648 277.1455 15.08838275 59767,6917.886,95.438,540.426,539.075,0.0
52674.0,STARLINK-3936,PAYLOAD,2023-06-11 20:03:41,15.08843964,9.71e-05,53.2172,331.6183,86.2589,273.8514,0.00011178,1.492e-05,0.0,0 STARLINK-3936,1 52674U 22053U   23162.83590153  .00001492  00000-0  11178-3 0  9991,2 52674  53.2172 331.6183 0000971  86.2589 273.8514 15.08843964 59806,6917.868,95.437,540.405,539.062,0.0
52674.0,STARLINK-3936,PAYLOAD,2023-06-12 04:00:37,15.08844726,9.51e-05,53.2175,330.1317,85.6965,274.4136,8.0011e-05,9.86e-06,0.0,0 STARLINK-3936,1 52674U 22053U   23163.16710104  .00000986  00000-0  80011-4 0  9998,2 52674  53.2175 330.1317 0000951  85.6965 274.4136 15.08844726 59850,6917.866,95.437,540.389,539.073,0.0
52674.0,STARLINK-3936,PAYLOAD,2023-06-13 03:51:25,15.08834694,0.0001124,53.2188,325.6729,101.0647,259.0472,0.00013207,1.814e-05,0.0,0 STARLINK-3936,1 52674U 22053U   23164.16070827  .00001814  00000-0  13207-3 0  9993,2 52674  53.2188 325.6729 0001124 101.0647 259.0472 15.08834694 59566,6917.897,95.438,540.539,538.984,0.0
52674.0,STARLINK-3936,PAYLOAD,2023-06-13 19:45:16,15.08845591,9.84e-05,53.2176,322.6968,93.3542,266.7563,8.9762e-05,1.141e-05,0.0,0 STARLINK-3936,1 52674U 22053U   23164.82310197  .00001141  00000-0  89762-4 0  9996,2 52674  53.2176 322.6968 0000984  93.3542 266.7563 15.08845591 60101,6917.863,95.437,540.409,539.048,0.0
52674.0,STARLINK-3936,PAYLOAD,2023-06-14 10:03:44,15.08834055,9.77e-05,53.2175,320.0212,87.5352,272.5752,7.2422e-05,8.65e-06,0.0,0 STARLINK-3936,1 52674U 22053U   23165.41926979  .00000865  00000-0  72422-4 0  9990,2 52674  53.2175 320.0212 0000977  87.5352 272.5752 15.08834055 59757,6917.899,95.438,540.439,539.088,0.0
52674.0,STARLINK-3936,PAYLOAD,2023-06-14 13:14:31,15.08833785,0.0001045,53.2173,319.4259,85.9284,274.1827,5.6061e-05,6.04e-06,0.0,0 STARLINK-3936,1 52674U 22053U   23165.55175090  .00000604  00000-0  56061-4 0  9997,2 52674  53.2173 319.4259 0001045  85.9284 274.1827 15.08833785 60214,6917.899,95.438,540.487,539.041,0.0
52674.0,STARLINK-3936,PAYLOAD,2023-06-14 16:25:17,15.08836369,9.39e-05,53.218,318.8312,84.1943,275.9156,7.5621e-05,9.16e-06,0.0,0 STARLINK-3936,1 52674U 22053U   23165.68422886  .00000916  00000-0  75621-4 0  9998,2 52674  53.2180 318.8312 0000939  84.1943 275.9156 15.08836369 60236,6917.891,95.438,540.406,539.107,0.0
52674.0,STARLINK-3936,PAYLOAD,2023-06-15 11:29:55,15.08836646,8.74e-05,53.2178,315.2631,89.0598,271.0494,6.9027e-05,8.11e-06,0.0,0 STARLINK-3936,1 52674U 22053U   23166.47910991  .00000811  00000-0  69027-4 0  9992,2 52674  53.2178 315.2631 0000874  89.0598 271.0494 15.08836646 60359,6917.891,95.438,540.36,539.151,0.0
52674.0,STARLINK-3936,PAYLOAD,2023-06-15 16:16:04,15.08844977,9.52e-05,53.2176,314.3708,89.3094,270.8008,6.6208e-05,7.66e-06,0.0,0 STARLINK-3936,1 52674U 22053U   23166.67782561  .00000766  00000-0  66208-4 0  9991,2 52674  53.2176 314.3708 0000952  89.3094 270.8008 15.08844977 59940,6917.865,95.437,540.389,539.072,0.0
52674.0,STARLINK-3936,PAYLOAD,2023-06-16 12:56:04,15.08847961,9.66e-05,53.2175,310.5049,85.3835,274.7267,0.00017227,2.456e-05,0.0,0 STARLINK-3936,1 52674U 22053U   23167.53893976  .00002456  00000-0  17227-3 0  9994,2 52674  53.2175 310.5049 0000966  85.3835 274.7267 15.08847961 60510,6917.856,95.437,540.389,539.053,0.0
52674.0,STARLINK-3936,PAYLOAD,2023-06-16 19:17:36,15.08854539,0.000101,53.2174,309.3149,90.2138,269.897,0.00030715,4.606e-05,0.0,0 STARLINK-3936,1 52674U 22053U   23167.80389158  .00004606  00000-0  30715-3 0  9992,2 52674  53.2174 309.3149 0001010  90.2138 269.8970 15.08854539 60557,6917.836,95.437,540.4,539.002,0.0
52674.0,STARLINK-3936,PAYLOAD,2023-06-17 09:36:06,15.08826216,7.81e-05,53.2166,306.6388,70.1896,289.918,-0.00013479,-2.431e-05,0.0,0 STARLINK-3936,1 52674U 22053U   23168.40007415 -.00002431  00000-0 -13479-3 0  9996,2 52674  53.2166 306.6388 0000781  70.1896 289.9180 15.08826216 60204,6917.923,95.438,540.328,539.247,0.0
